STARLINK-2409
1 17824C 21018AP  21326.16027707  .00004754  00000-0  31846-3 0  3260
2 17824  53.0531  93.0305 0001161  72.6967 346.7535 15.06398090    15
